H1 CPF 01  gfz 2022 04 06 00  5961 tandemx   
H2 1003001  6202 36605    2022 04 06 00 59 42 2022 04 11 00 00 42   120 1 1  0 0 0
H9
10 0 59675  53262.000000  0   -1374051.501   -218205.967  -6753510.502
10 0 59675  53382.000000  0    -776396.932    473969.558  -6835101.004
10 0 59675  53502.000000  0    -153350.461   1147258.574  -6797515.792
10 0 59675  53622.000000  0     483866.549   1789657.166  -6641398.636
10 0 59675  53742.000000  0    1123578.367   2389886.131  -6369432.411
10 0 59675  53862.000000  0    1753864.976   2937586.293  -5986298.623
10 0 59675  53982.000000  0    2362779.649   3423496.607  -5498604.881
10 0 59675  54102.000000  0    2938572.428   3839611.485  -4914781.191
10 0 59675  54222.000000  0    3469915.584   4179316.845  -4244946.338
10 0 59675  54342.000000  0    3946128.043   4437501.751  -3500743.282
10 0 59675  54462.000000  0    4357393.756   4610642.116  -2695144.894
10 0 59675  54582.000000  0    4694967.934   4696853.569  -1842231.939
10 0 59675  54702.000000  0    4951367.093   4695912.950   -956948.941
10 0 59675  54822.000000  0    5120537.893   4609246.037    -54838.930
10 0 59675  54942.000000  0    5197997.567   4439881.779    848235.045
10 0 59675  55062.000000  0    5180945.187   4192374.998   1736375.506
10 0 59675  55182.000000  0    5068341.226   3872697.889   2593939.197
10 0 59675  55302.000000  0    4860949.920   3488101.931   3405822.322
10 0 59675  55422.000000  0    4561343.616   3046955.142   4157733.663
10 0 59675  55542.000000  0    4173870.970   2558558.757   4836450.017
10 0 59675  55662.000000  0    3704590.875   2032949.207   5430050.236
10 0 59675  55782.000000  0    3161169.605   1480689.334   5928123.913
10 0 59675  55902.000000  0    2552748.896    912653.096   6321948.877
10 0 59675  56022.000000  0    1889786.865    339809.763   6604636.584
10 0 59675  56142.000000  0    1183875.323   -226986.645   6771246.883
10 0 59675  56262.000000  0     447534.828   -777202.521   6818871.138
10 0 59675  56382.000000  0    -306008.686  -1300820.607   6746679.204
10 0 59675  56502.000000  0   -1063061.451  -1788521.966   6555932.408
10 0 59675  56622.000000  0   -1809709.928  -2231851.921   6249961.385
10 0 59675  56742.000000  0   -2532074.099  -2623366.070   5834111.292
10 0 59675  56862.000000  0   -3216565.569  -2956757.302   5315656.932
10 0 59675  56982.000000  0   -3850148.242  -3226961.232   4703681.881
10 0 59675  57102.000000  0   -4420591.257  -3430235.463   4008922.849
10 0 59675  57222.000000  0   -4916710.232  -3564212.128   3243584.666
10 0 59675  57342.000000  0   -5328592.613  -3627922.910   2421128.119
10 0 59675  57462.000000  0   -5647803.023  -3621796.498   1556032.205
10 0 59675  57582.000000  0   -5867561.255  -3547626.585    663533.806
10 0 59675  57702.000000  0   -5982888.484  -3408510.803   -240647.758
10 0 59675  57822.000000  0   -5990718.494  -3208763.272  -1140596.191
10 0 59675  57942.000000  0   -5889969.913  -2953801.804  -2020488.696
10 0 59675  58062.000000  0   -5681576.447  -2650012.672  -2864882.095
10 0 59675  58182.000000  0   -5368477.455  -2304598.216  -3658988.520
10 0 59675  58302.000000  0   -4955568.695  -1925410.609  -4388936.044
10 0 59675  58422.000000  0   -4449615.849  -1520776.475  -5042008.783
10 0 59675  58542.000000  0   -3859133.047  -1099316.405  -5606863.354
10 0 59675  58662.000000  0   -3194229.377   -669763.303  -6073716.987
10 0 59675  58782.000000  0   -2466428.484   -240784.206  -6434505.624
10 0 59675  58902.000000  0   -1688464.650    179190.811  -6683011.581
10 0 59675  59022.000000  0    -874059.061    582129.237  -6814959.035
10 0 59675  59142.000000  0     -37681.775    960545.078  -6828079.220
10 0 59675  59262.000000  0     805698.815   1307634.032  -6722144.509
10 0 59675  59382.000000  0    1640876.697   1617392.057  -6498974.403
10 0 59675  59502.000000  0    2452677.191   1884718.269  -6162408.214
10 0 59675  59622.000000  0    3226228.166   2105498.386  -5718245.729
10 0 59675  59742.000000  0    3947229.043   2276667.832  -5174156.351
10 0 59675  59862.000000  0    4602215.344   2396254.502  -4539559.039
10 0 59675  59982.000000  0    5178814.835   2463399.919  -3825470.080
10 0 59675  60102.000000  0    5665987.706   2478357.576  -3044320.731
10 0 59675  60222.000000  0    6054247.072   2442468.652  -2209748.598
10 0 59675  60342.000000  0    6335855.318   2358115.180  -1336362.050
10 0 59675  60462.000000  0    6504987.673   2228650.659   -439483.269
10 0 59675  60582.000000  0    6557861.217   2058309.838    465125.477
10 0 59675  60702.000000  0    6492821.476   1852098.840   1361546.242
10 0 59675  60822.000000  0    6310389.454   1615670.565   2233992.184
10 0 59675  60942.000000  0    6013264.598   1355186.038   3067095.899
10 0 59675  61062.000000  0    5606282.342   1077166.156   3846187.810
10 0 59675  61182.000000  0    5096328.535    788337.977   4557560.594
10 0 59675  61302.000000  0    4492214.116    495479.834   5188711.826
10 0 59675  61422.000000  0    3804513.803    205268.568   5728564.222
10 0 59675  61542.000000  0    3045370.260    -75868.089   6167656.955
10 0 59675  61662.000000  0    2228271.930   -341888.571   6498304.800
10 0 59675  61782.000000  0    1367809.047   -587263.269   6714727.216
10 0 59675  61902.000000  0     479409.526   -807087.054   6813145.029
10 0 59675  62022.000000  0    -420939.792   -997175.707   6791841.406
10 0 59675  62142.000000  0   -1316980.336  -1154145.078   6651189.034
10 0 59675  62262.000000  0   -2192474.232  -1275471.426   6393643.105
10 0 59675  62382.000000  0   -3031496.549  -1359531.375   6023700.802
10 0 59675  62502.000000  0   -3818725.542  -1405621.992   5547830.032
10 0 59675  62622.000000  0   -4539727.380  -1413961.720   4974363.027
10 0 59675  62742.000000  0   -5181227.421  -1385670.762   4313355.734
10 0 59675  62862.000000  0   -5731362.608  -1322730.698   3576414.825
10 0 59675  62982.000000  0   -6179908.799  -1227924.284   2776495.913
10 0 59675  63102.000000  0   -6518480.378  -1104757.397   1927677.199
10 0 59675  63222.000000  0   -6740698.184   -957364.567   1044908.266
10 0 59675  63342.000000  0   -6842316.352   -790399.787    143739.199
10 0 59675  63462.000000  0   -6821306.417   -608915.552   -759961.739
10 0 59675  63582.000000  0   -6677896.930   -418233.393  -1650296.819
10 0 59675  63702.000000  0   -6414566.641   -223809.143  -2511626.187
10 0 59675  63822.000000  0   -6035995.130    -31097.422  -3328848.509
10 0 59675  63942.000000  0   -5548968.665    154583.088  -4087670.953
10 0 59675  64062.000000  0   -4962244.714    328178.923  -4774858.854
10 0 59675  64182.000000  0   -4286381.211    485022.941  -5378462.074
10 0 59675  64302.000000  0   -3533534.981    620944.536  -5888015.030
10 0 59675  64422.000000  0   -2717233.772    732365.528  -6294707.463
10 0 59675  64542.000000  0   -1852128.790    816381.301  -6591524.145
10 0 59675  64662.000000  0    -953731.050    870826.040  -6773355.394
10 0 59675  64782.000000  0     -38136.011    894320.840  -6837074.388
10 0 59675  64902.000000  0     878257.182    886303.656  -6781584.319
10 0 59675  65022.000000  0    1779031.840    847041.015  -6607837.936
10 0 59675  65142.000000  0    2648042.262    777621.678  -6318823.297
10 0 59675  65262.000000  0    3469697.993    679932.223  -5919517.602
10 0 59675  65382.000000  0    4229240.015    556614.264  -5416809.486
10 0 59675  65502.000000  0    4913005.692    411003.991  -4819391.715
10 0 59675  65622.000000  0    5508679.588    247055.771  -4137622.617
10 0 59675  65742.000000  0    6005523.346     69249.857  -3383356.146
10 0 59675  65862.000000  0    6394579.561   -117513.511  -2569744.130
10 0 59675  65982.000000  0    6668846.723   -308031.805  -1711012.193
10 0 59675  66102.000000  0    6823418.113   -496926.942   -822210.984
10 0 59675  66222.000000  0    6855580.427   -678777.560     81050.526
10 0 59675  66342.000000  0    6764870.347   -848254.457    982884.899
10 0 59675  66462.000000  0    6553085.758  -1000255.425   1867413.809
10 0 59675  66582.000000  0    6224252.192  -1130035.833   2719057.120
10 0 59675  66702.000000  0    5784541.767  -1233331.200   3522816.373
10 0 59675  66822.000000  0    5242151.016  -1306468.822   4264544.653
10 0 59675  66942.000000  0    4607139.222  -1346466.753   4931199.659
10 0 59675  67062.000000  0    3891231.718  -1351115.511   5511073.482
10 0 59675  67182.000000  0    3107594.174  -1319041.857   5993996.522
10 0 59675  67302.000000  0    2270581.857  -1249754.298   6371511.233
10 0 59675  67422.000000  0    1395471.333  -1143668.865   6637014.585
10 0 59675  67542.000000  0     498177.301  -1002114.698   6785868.448
10 0 59675  67662.000000  0    -405039.003   -827318.601   6815474.817
10 0 59675  67782.000000  0   -1297863.927   -622370.082   6725317.059
10 0 59675  67902.000000  0   -2164224.595   -391166.879   6516968.124
10 0 59675  68022.000000  0   -2988576.864   -138341.524   6194065.107
10 0 59675  68142.000000  0   -3756184.797    130829.738   5762250.932
10 0 59675  68262.000000  0   -4453387.730    410534.140   5229081.923
10 0 59675  68382.000000  0   -5067849.245    694543.978   4603901.357
10 0 59675  68502.000000  0   -5588783.707    976350.469   3897680.777
10 0 59675  68622.000000  0   -6007154.190   1249307.385   3122830.158
10 0 59675  68742.000000  0   -6315838.593   1506781.275   2292981.181
10 0 59675  68862.000000  0   -6509759.988   1742304.402   1422745.560
10 0 59675  68982.000000  0   -6585977.907   1949727.371    527452.855
10 0 59675  69102.000000  0   -6543736.098   2123367.296   -377127.947
10 0 59675  69222.000000  0   -6384465.477   2258146.690  -1275075.218
10 0 59675  69342.000000  0   -6111743.324   2349720.439  -2150603.311
10 0 59675  69462.000000  0   -5731210.033   2394588.122  -2988348.179
10 0 59675  69582.000000  0   -5250443.675   2390187.851  -3773642.910
10 0 59675  69702.000000  0   -4678798.004   2334969.040  -4492775.748
99
